[{"OBJECT_NAME":"ARIRANG-2 (KOMPSAT-2)","OBJECT_ID":"2006-031A","EPOCH":"2026-03-09T23:26:11.281344","MEAN_MOTION":14.64589494,"ECCENTRICITY":0.00152528,"INCLINATION":97.8302,"RA_OF_ASC_NODE":258.2159,"ARG_OF_PERICENTER":32.9467,"MEAN_ANOMALY":122.2845,"EPHEMERIS_TYPE":0,"CLASSIFICATION_TYPE":"U","NORAD_CAT_ID":29268,"ELEMENT_SET_NO":999,"REV_AT_EPOCH":4695,"BSTAR":0.00012039561,"MEAN_MOTION_DOT":5.95e-6,"MEAN_MOTION_DDOT":0},{"OBJECT_NAME":"FENGYUN 1C DEB","OBJECT_ID":"1999-025EAG","EPOCH":"2026-02-25T09:09:33.732288","MEAN_MOTION":14.50736676,"ECCENTRICITY":0.0064316,"INCLINATION":98.3702,"RA_OF_ASC_NODE":118.1006,"ARG_OF_PERICENTER":314.0767,"MEAN_ANOMALY":45.5143,"EPHEMERIS_TYPE":0,"CLASSIFICATION_TYPE":"U","NORAD_CAT_ID":36710,"ELEMENT_SET_NO":999,"REV_AT_EPOCH":66035,"BSTAR":0.0010875,"MEAN_MOTION_DOT":4.346e-5,"MEAN_MOTION_DDOT":0}]
